SENTINEL-5P             
1 42969U 17064A   26187.30356654  .00000063  00000+0  50935-4 0  9998
2 42969  98.7927 129.2992 0001098  92.0399 268.0903 14.19522292452273
